ONEWEB-0128             
1 47274U 20100S   25336.18660757 -.00000370  00000+0 -10646-2 0  9996
2 47274  87.8943  29.8357 0001938  93.5678 266.5672 13.12444504238902
ONEWEB-0129             
1 47275U 20100T   25336.16551843 -.00000022  00000+0 -95724-4 0  9996
2 47275  87.8955  29.7921 0001378  56.7812 303.3449 13.12442217238834
ONEWEB-0130             
1 47276U 20100U   25336.19310143 -.00000261  00000+0 -76168-3 0  9991
2 47276  87.8952  29.7818 0001800  95.1458 264.9876 13.12444164238806
ONEWEB-0131             
1 47277U 20100V   25336.18985592 -.00000268  00000+0 -77925-3 0  9996
2 47277  87.8954  29.8128 0001779  98.9961 261.1369 13.12444212238843
ONEWEB-0132             
1 47278U 20100W   25336.21906063  .00000503  00000+0  13620-2 0  9998
2 47278  87.8953  29.8084 0001824  98.1959 261.9377 13.12443521238742
ONEWEB-0133             
1 47279U 20100X   25336.15890075  .00000159  00000+0  40771-3 0  9992
2 47279  87.8948  29.7829 0001903  97.5048 262.6297 13.12442996238893
ONEWEB-0134             
1 47280U 20100Y   25336.20446005  .00000166  00000+0  42645-3 0  9990
2 47280  87.8953  29.7683 0001872  91.1448 268.9895 13.12444703238877
ONEWEB-0135             
1 47281U 20100Z   25336.17524326 -.00000349  00000+0 -10050-2 0  9999
2 47281  87.8949  29.8140 0002048  90.3618 269.7745 13.12440985238891
